{"type": "FeatureCollection", "features": [ {"type": "Feature", "properties": {"norad_id": 39586, "name": "COSMOS 2251 DEB", "group": "cosmos-2251-debris", "lat": 36.8036993224881, "lon": -112.17733401165724, "alt_km": 754.2201039239908, "timestamp": "2025-12-08T17:43:05.336302+00:00", "meta": {"OBJECT_NAME": "COSMOS 2251 DEB", "OBJECT_ID": "1993-036BUR", "EPOCH": "2025-12-04T00:26:07.876608", "MEAN_MOTION": 14.21195867, "ECCENTRICITY": 0.01003221, "INCLINATION": 74.0095, "RA_OF_ASC_NODE": 243.9042, "ARG_OF_PERICENTER": 20.3845, "MEAN_ANOMALY": 357.5964, "EPHEMERIS_TYPE": 0, "CLASSIFICATION_TYPE": "U", "NORAD_CAT_ID": 39586, "ELEMENT_SET_NO": 999, "REV_AT_EPOCH": 60848, "BSTAR": 0.00088936605, "MEAN_MOTION_DOT": 2.011e-05, "MEAN_MOTION_DDOT": 0}, "tle": {"line1": "1 39586U 93036BUR 25338.01814672  .00002011  00000+0  88937-3 0  9993", "line2": "2 39586  74.0095 243.9042 0100322  20.3845 357.5964 14.21195867608481"}}, "geometry": {"type": "Point", "coordinates": [-112.17733401165724, 36.8036993224881]}}, {"type": "Feature", "properties": {"norad_id": 39591, "name": "COSMOS 2251 DEB", "group": "cosmos-2251-debris", "lat": -9.463353124904593, "lon": -108.55498392599276, "alt_km": 736.625588438772, "timestamp": "2025-12-08T17:43:05.336313+00:00", "meta": {"OBJECT_NAME": "COSMOS 2251 DEB", "OBJECT_ID": "1993-036BUW", "EPOCH": "2025-12-07T12:37:20.058240", "MEAN_MOTION": 14.41797082, "ECCENTRICITY": 0.00291403, "INCLINATION": 74.0183, "RA_OF_ASC_NODE": 256.4312, "ARG_OF_PERICENTER": 11.534, "MEAN_ANOMALY": 168.8103, "EPHEMERIS_TYPE": 0, "CLASSIFICATION_TYPE": "U", "NORAD_CAT_ID": 39591, "ELEMENT_SET_NO": 999, "REV_AT_EPOCH": 61701, "BSTAR": 0.00067199948, "MEAN_MOTION_DOT": 2.18e-05, "MEAN_MOTION_DDOT": 0}, "tle": {"line1": "1 39591U 93036BUW 25341.52592660  .00002180  00000+0  67200-3 0  9996", "line2": "2 39591  74.0183 256.4312 0029140  11.5340 168.8103 14.41797082617010"}}, "geometry": {"type": "Point", "coordinates": [-108.55498392599276, -9.463353124904593]}}, {"type": "Feature", "properties": {"norad_id": 40218, "name": "COSMOS 2251 DEB", "group": "cosmos-2251-debris", "lat": -62.62389674086171, "lon": 109.81810040584905, "alt_km": 760.6383359552447, "timestamp": "2025-12-08T17:43:05.336324+00:00", "meta": {"OBJECT_NAME": "COSMOS 2251 DEB", "OBJECT_ID": "1993-036BUX", "EPOCH": "2025-12-02T02:20:48.132384", "MEAN_MOTION": 14.41546301, "ECCENTRICITY": 0.00163619, "INCLINATION": 74.0309, "RA_OF_ASC_NODE": 268.5457, "ARG_OF_PERICENTER": 353.795, "MEAN_ANOMALY": 6.3, "EPHEMERIS_TYPE": 0, "CLASSIFICATION_TYPE": "U", "NORAD_CAT_ID": 40218, "ELEMENT_SET_NO": 999, "REV_AT_EPOCH": 58708, "BSTAR": 0.00047133972, "MEAN_MOTION_DOT": 1.508e-05, "MEAN_MOTION_DDOT": 0}, "tle": {"line1": "1 40218U 93036BUX 25336.09777931  .00001508  00000+0  47134-3 0  9993", "line2": "2 40218  74.0309 268.5457 0016361 353.7950   6.3000 14.41546301587082"}}, "geometry": {"type": "Point", "coordinates": [109.81810040584905, -62.62389674086171]}}, {"type": "Feature", "properties": {"norad_id": 40223, "name": "COSMOS 2251 DEB", "group": "cosmos-2251-debris", "lat": 47.04157478264857, "lon": 114.94850256611721, "alt_km": 557.7585783635132, "timestamp": "2025-12-08T17:43:05.336334+00:00", "meta": {"OBJECT_NAME": "COSMOS 2251 DEB", "OBJECT_ID": "1993-036BVC", "EPOCH": "2025-12-08T02:18:42.246720", "MEAN_MOTION": 15.02755961, "ECCENTRICITY": 0.00147022, "INCLINATION": 73.9387, "RA_OF_ASC_NODE": 98.2429, "ARG_OF_PERICENTER": 297.0015, "MEAN_ANOMALY": 241.0654, "EPHEMERIS_TYPE": 0, "CLASSIFICATION_TYPE": "U", "NORAD_CAT_ID": 40223, "ELEMENT_SET_NO": 999, "REV_AT_EPOCH": 59304, "BSTAR": 0.0059468651, "MEAN_MOTION_DOT": 0.00080581, "MEAN_MOTION_DDOT": 0}, "tle": {"line1": "1 40223U 93036BVC 25342.09632230  .00080581  00000+0  59469-2 0  9999", "line2": "2 40223  73.9387  98.2429 0014702 297.0015 241.0654 15.02755961593046"}}, "geometry": {"type": "Point", "coordinates": [114.94850256611721, 47.04157478264857]}}, {"type": "Feature", "properties": {"norad_id": 40228, "name": "COSMOS 2251 DEB", "group": "cosmos-2251-debris", "lat": 31.924065531670042, "lon": 77.66337898895935, "alt_km": 770.0636048614197, "timestamp": "2025-12-08T17:43:05.336345+00:00", "meta": {"OBJECT_NAME": "COSMOS 2251 DEB", "OBJECT_ID": "1993-036BVH", "EPOCH": "2025-12-07T13:33:16.737984", "MEAN_MOTION": 14.40975918, "ECCENTRICITY": 0.00238751, "INCLINATION": 74.0543, "RA_OF_ASC_NODE": 270.0925, "ARG_OF_PERICENTER": 332.416, "MEAN_ANOMALY": 209.1246, "EPHEMERIS_TYPE": 0, "CLASSIFICATION_TYPE": "U", "NORAD_CAT_ID": 40228, "ELEMENT_SET_NO": 999, "REV_AT_EPOCH": 58846, "BSTAR": 0.0006394623, "MEAN_MOTION_DOT": 2.035e-05, "MEAN_MOTION_DDOT": 0}, "tle": {"line1": "1 40228U 93036BVH 25341.56477706  .00002035  00000+0  63946-3 0  9994", "line2": "2 40228  74.0543 270.0925 0023875 332.4160 209.1246 14.40975918588463"}}, "geometry": {"type": "Point", "coordinates": [77.66337898895935, 31.924065531670042]}}, {"type": "Feature", "properties": {"norad_id": 40230, "name": "COSMOS 2251 DEB", "group": "cosmos-2251-debris", "lat": -9.030268071262672, "lon": 56.99849171930866, "alt_km": 734.7844665983566, "timestamp": "2025-12-08T17:43:05.336355+00:00", "meta": {"OBJECT_NAME": "COSMOS 2251 DEB", "OBJECT_ID": "1993-036BVK", "EPOCH": "2025-12-05T11:49:12.794880", "MEAN_MOTION": 14.49259606, "ECCENTRICITY": 0.00191133, "INCLINATION": 74.0458, "RA_OF_ASC_NODE": 240.4744, "ARG_OF_PERICENTER": 299.5216, "MEAN_ANOMALY": 242.5097, "EPHEMERIS_TYPE": 0, "CLASSIFICATION_TYPE": "U", "NORAD_CAT_ID": 40230, "ELEMENT_SET_NO": 999, "REV_AT_EPOCH": 58866, "BSTAR": 0.0014637297, "MEAN_MOTION_DOT": 5.571e-05, "MEAN_MOTION_DDOT": 0}, "tle": {"line1": "1 40230U 93036BVK 25339.49250920  .00005571  00000+0  14637-2 0  9993", "line2": "2 40230  74.0458 240.4744 0019113 299.5216 242.5097 14.49259606588661"}}, "geometry": {"type": "Point", "coordinates": [56.99849171930866, -9.030268071262672]}}, {"type": "Feature", "properties": {"norad_id": 40233, "name": "COSMOS 2251 DEB", "group": "cosmos-2251-debris", "lat": -59.04341728746421, "lon": -40.526597558393775, "alt_km": 687.4045554511849, "timestamp": "2025-12-08T17:43:05.336366+00:00", "meta": {"OBJECT_NAME": "COSMOS 2251 DEB", "OBJECT_ID": "1993-036BVN", "EPOCH": "2025-12-04T02:17:52.292832", "MEAN_MOTION": 14.58236674, "ECCENTRICITY": 0.00461905, "INCLINATION": 73.9387, "RA_OF_ASC_NODE": 119.6526, "ARG_OF_PERICENTER": 195.886, "MEAN_ANOMALY": 164.0859, "EPHEMERIS_TYPE": 0, "CLASSIFICATION_TYPE": "U", "NORAD_CAT_ID": 40233, "ELEMENT_SET_NO": 999, "REV_AT_EPOCH": 59011, "BSTAR": 0.0029314151, "MEAN_MOTION_DOT": 0.00013736, "MEAN_MOTION_DDOT": 0}, "tle": {"line1": "1 40233U 93036BVN 25338.09574413  .00013736  00000+0  29314-2 0  9997", "line2": "2 40233  73.9387 119.6526 0046190 195.8860 164.0859 14.58236674590113"}}, "geometry": {"type": "Point", "coordinates": [-40.526597558393775, -59.04341728746421]}}, {"type": "Feature", "properties": {"norad_id": 40236, "name": "COSMOS 2251 DEB", "group": "cosmos-2251-debris", "lat": 58.41111140449447, "lon": 178.80531262562826, "alt_km": 811.7656112982622, "timestamp": "2025-12-08T17:43:05.336376+00:00", "meta": {"OBJECT_NAME": "COSMOS 2251 DEB", "OBJECT_ID": "1993-036BVR", "EPOCH": "2025-12-07T17:52:23.026080", "MEAN_MOTION": 13.24639967, "ECCENTRICITY": 0.05366128, "INCLINATION": 73.5349, "RA_OF_ASC_NODE": 151.6266, "ARG_OF_PERICENTER": 32.3576, "MEAN_ANOMALY": 330.9258, "EPHEMERIS_TYPE": 0, "CLASSIFICATION_TYPE": "U", "NORAD_CAT_ID": 40236, "ELEMENT_SET_NO": 999, "REV_AT_EPOCH": 53558, "BSTAR": 0.0015786255, "MEAN_MOTION_DOT": 1.455e-05, "MEAN_MOTION_DDOT": 0}, "tle": {"line1": "1 40236U 93036BVR 25341.74471095  .00001455  00000+0  15786-2 0  9991", "line2": "2 40236  73.5349 151.6266 0536612  32.3576 330.9258 13.24639967535580"}}, "geometry": {"type": "Point", "coordinates": [178.80531262562826, 58.41111140449447]}}, {"type": "Feature", "properties": {"norad_id": 40238, "name": "COSMOS 2251 DEB", "group": "cosmos-2251-debris", "lat": 24.48145872909485, "lon": -117.76739669241229, "alt_km": 1298.5233627310072, "timestamp": "2025-12-08T17:43:05.336387+00:00", "meta": {"OBJECT_NAME": "COSMOS 2251 DEB", "OBJECT_ID": "1993-036BVT", "EPOCH": "2025-12-04T13:20:38.533056", "MEAN_MOTION": 13.25091202, "ECCENTRICITY": 0.0549745, "INCLINATION": 73.9885, "RA_OF_ASC_NODE": 76.1652, "ARG_OF_PERICENTER": 49.7266, "MEAN_ANOMALY": 315.0566, "EPHEMERIS_TYPE": 0, "CLASSIFICATION_TYPE": "U", "NORAD_CAT_ID": 40238, "ELEMENT_SET_NO": 999, "REV_AT_EPOCH": 53928, "BSTAR": 0.0023519, "MEAN_MOTION_DOT": 2.29e-05, "MEAN_MOTION_DDOT": 0}, "tle": {"line1": "1 40238U 93036BVT 25338.55600154  .00002290  00000+0  23519-2 0  9999", "line2": "2 40238  73.9885  76.1652 0549745  49.7266 315.0566 13.25091202539282"}}, "geometry": {"type": "Point", "coordinates": [-117.76739669241229, 24.48145872909485]}}, {"type": "Feature", "properties": {"norad_id": 40239, "name": "COSMOS 2251 DEB", "group": "cosmos-2251-debris", "lat": 30.956128115675696, "lon": 93.60960046852492, "alt_km": 706.4070616551198, "timestamp": "2025-12-08T17:43:05.336397+00:00", "meta": {"OBJECT_NAME": "COSMOS 2251 DEB", "OBJECT_ID": "1993-036BVU", "EPOCH": "2025-12-07T03:20:57.988320", "MEAN_MOTION": 14.61953613, "ECCENTRICITY": 0.00846067, "INCLINATION": 74.0321, "RA_OF_ASC_NODE": 286.5589, "ARG_OF_PERICENTER": 39.3836, "MEAN_ANOMALY": 336.7087, "EPHEMERIS_TYPE": 0, "CLASSIFICATION_TYPE": "U", "NORAD_CAT_ID": 40239, "ELEMENT_SET_NO": 999, "REV_AT_EPOCH": 59529, "BSTAR": 0.00078994499, "MEAN_MOTION_DOT": 4.135e-05, "MEAN_MOTION_DDOT": 0}, "tle": {"line1": "1 40239U 93036BVU 25341.13956005  .00004135  00000+0  78994-3 0  9995", "line2": "2 40239  74.0321 286.5589 0084606  39.3836 336.7087 14.61953613595299"}}, "geometry": {"type": "Point", "coordinates": [93.60960046852492, 30.956128115675696]}}]}